[{"OBJECT_NAME":"HAIYANG-2B","OBJECT_ID":"2018-081A","EPOCH":"2026-03-10T00:03:41.001696","MEAN_MOTION":13.79306715,"ECCENTRICITY":0.0001262,"INCLINATION":99.3339,"RA_OF_ASC_NODE":79.2399,"ARG_OF_PERICENTER":141.6934,"MEAN_ANOMALY":218.4307,"EPHEMERIS_TYPE":0,"CLASSIFICATION_TYPE":"U","NORAD_CAT_ID":43655,"ELEMENT_SET_NO":999,"REV_AT_EPOCH":37125,"BSTAR":-0.00018769625,"MEAN_MOTION_DOT":-2.37e-6,"MEAN_MOTION_DDOT":0},{"OBJECT_NAME":"COSMOS 1759","OBJECT_ID":"1986-047A","EPOCH":"2026-03-10T00:04:03.188352","MEAN_MOTION":13.75193197,"ECCENTRICITY":0.00247848,"INCLINATION":82.9159,"RA_OF_ASC_NODE":262.1603,"ARG_OF_PERICENTER":167.8272,"MEAN_ANOMALY":345.0836,"EPHEMERIS_TYPE":0,"CLASSIFICATION_TYPE":"U","NORAD_CAT_ID":16798,"ELEMENT_SET_NO":999,"REV_AT_EPOCH":99306,"BSTAR":5.5365134e-5,"MEAN_MOTION_DOT":6.8e-7,"MEAN_MOTION_DDOT":0}]
